NORAD_CAT_ID,OBJECT_NAME,OBJECT_TYPE,EPOCH,MEAN_MOTION,ECCENTRICITY,INCLINATION,RA_OF_ASC_NODE,ARG_OF_PERICENTER,MEAN_ANOMALY,BSTAR,MEAN_MOTION_DOT,MEAN_MOTION_DDOT,TLE_LINE0,TLE_LINE1,TLE_LINE2,SEMIMAJOR_AXIS,PERIOD,APOGEE,PERIGEE,DECAYED
53413.0,STARLINK-4500,PAYLOAD,2023-05-05 07:59:29,15.08847761,0.0001356,53.217,99.9696,91.8517,268.263,7.6504e-05,9.3e-06,0.0,0 STARLINK-4500,1 53413U 22097AB  23125.33297496  .00000930  00000-0  76504-4 0  9990,2 53413  53.2170  99.9696 0001356  91.8517 268.2630 15.08847761 41256,6917.857,95.437,540.66,538.784,0.0
53413.0,STARLINK-4500,PAYLOAD,2023-05-05 15:56:24,15.08844754,0.0001259,53.2167,98.4825,99.9638,260.1496,3.4493e-05,2.61e-06,0.0,0 STARLINK-4500,1 53413U 22097AB  23125.66417685  .00000261  00000-0  34493-4 0  9998,2 53413  53.2167  98.4825 0001259  99.9638 260.1496 15.08844754 41794,6917.866,95.437,540.602,538.86,0.0
53413.0,STARLINK-4500,PAYLOAD,2023-05-06 01:28:44,15.08838159,0.0001293,53.2161,96.6986,87.7761,272.338,4.954e-05,5.01e-06,0.0,0 STARLINK-4500,1 53413U 22097AB  23126.06162263  .00000501  00000-0  49540-4 0  9998,2 53413  53.2161  96.6986 0001293  87.7761 272.3380 15.08838159 41368,6917.886,95.438,540.645,538.857,0.0
53413.0,STARLINK-4500,PAYLOAD,2023-05-06 07:50:16,15.08842401,0.0001257,53.2163,95.5086,90.6289,269.4847,6.2392e-05,7.05e-06,0.0,0 STARLINK-4500,1 53413U 22097AB  23126.32657998  .00000705  00000-0  62392-4 0  9997,2 53413  53.2163  95.5086 0001257  90.6289 269.4847 15.08842401 41895,6917.873,95.437,540.608,538.868,0.0
53413.0,STARLINK-4500,PAYLOAD,2023-05-07 04:30:17,15.08846199,0.0001146,53.2153,91.644,84.4057,275.7066,2.8867e-05,1.72e-06,0.0,0 STARLINK-4500,1 53413U 22097AB  23127.18769867  .00000172  00000-0  28867-4 0  9998,2 53413  53.2153  91.6440 0001146  84.4057 275.7066 15.08846199 41538,6917.861,95.437,540.519,538.934,0.0
53413.0,STARLINK-4500,PAYLOAD,2023-05-08 04:21:05,15.08832978,0.0001083,53.2166,87.1833,85.7345,274.3771,1.2385e-05,-9.1e-07,0.0,0 STARLINK-4500,1 53413U 22097AB  23128.18131132 -.00000091  00000-0  12385-4 0  9996,2 53413  53.2166  87.1833 0001083  85.7345 274.3771 15.08832978 41686,6917.902,95.438,540.516,539.018,0.0
53413.0,STARLINK-4500,PAYLOAD,2023-05-08 13:53:23,15.08838379,0.0001014,53.2157,85.3975,79.7454,280.3653,6.1437e-05,6.9e-06,0.0,0 STARLINK-4500,1 53413U 22097AB  23128.57874766  .00000690  00000-0  61437-4 0  9992,2 53413  53.2157  85.3975 0001014  79.7454 280.3653 15.08838379 42230,6917.885,95.438,540.452,539.049,0.0
53413.0,STARLINK-4500,PAYLOAD,2023-05-09 02:36:28,15.08847847,9.17e-05,53.2156,83.0189,80.0186,280.091,9.5991e-05,1.241e-05,0.0,0 STARLINK-4500,1 53413U 22097AB  23129.10866202  .00001241  00000-0  95991-4 0  9993,2 53413  53.2156  83.0189 0000917  80.0186 280.0910 15.08847847 41826,6917.856,95.437,540.356,539.087,0.0
53413.0,STARLINK-4500,PAYLOAD,2023-05-09 07:22:37,15.08847006,0.000121,53.2171,82.1287,97.1706,262.9424,0.0003114,4.672e-05,0.0,0 STARLINK-4500,1 53413U 22097AB  23129.30737767  .00004672  00000-0  31140-3 0  9994,2 53413  53.2171  82.1287 0001210  97.1706 262.9424 15.08847006 42340,6917.859,95.437,540.561,538.887,0.0
53413.0,STARLINK-4500,PAYLOAD,2023-05-10 04:02:39,15.08840117,0.0001028,53.2161,78.2612,95.1988,264.9121,6.7544e-05,7.87e-06,0.0,0 STARLINK-4500,1 53413U 22097AB  23130.16850747  .00000787  00000-0  67544-4 0  9995,2 53413  53.2161  78.2612 0001028  95.1988 264.9121 15.08840117 42470,6917.88,95.438,540.456,539.034,0.0
53413.0,STARLINK-4500,PAYLOAD,2023-05-11 03:53:25,15.08850752,0.0001175,53.2168,73.8031,107.1224,252.9896,8.6357e-05,1.087e-05,0.0,0 STARLINK-4500,1 53413U 22097AB  23131.16210241  .00001087  00000-0  86357-4 0  9992,2 53413  53.2168  73.8031 0001175 107.1224 252.9896 15.08850752 42622,6917.848,95.437,540.525,538.9,0.0
53413.0,STARLINK-4500,PAYLOAD,2023-05-12 02:08:50,15.08833916,0.0001307,53.2168,69.6395,81.8753,278.2388,7.2715e-05,8.69e-06,0.0,0 STARLINK-4500,1 53413U 22097AB  23132.08947683  .00000869  00000-0  72715-4 0  9991,2 53413  53.2168  69.6395 0001307  81.8753 278.2388 15.08833916 42271,6917.899,95.438,540.668,538.86,0.0
53413.0,STARLINK-4500,PAYLOAD,2023-05-13 00:24:14,15.08854226,0.000124,53.2184,65.4752,91.7487,268.3647,0.00028813,4.302e-05,0.0,0 STARLINK-4500,1 53413U 22097AB  23133.01682905  .00004302  00000-0  28813-3 0  9993,2 53413  53.2184  65.4752 0001240  91.7487 268.3647 15.08854226 42411,6917.837,95.437,540.56,538.844,0.0
53413.0,STARLINK-4500,PAYLOAD,2023-05-13 05:10:23,15.08863591,0.0001289,53.2178,64.5843,85.9818,274.1321,0.00058023,8.964e-05,0.0,0 STARLINK-4500,1 53413U 22097AB  23133.21554630  .00008964  00000-0  58023-3 0  9992,2 53413  53.2178  64.5843 0001289  85.9818 274.1321 15.08863591 42937,6917.808,95.436,540.565,538.782,0.0
53413.0,STARLINK-4500,PAYLOAD,2023-05-14 05:01:10,15.08846072,0.0001195,53.2174,60.1234,95.9855,264.1273,0.00047065,7.212e-05,0.0,0 STARLINK-4500,1 53413U 22097AB  23134.20915319  .00007212  00000-0  47065-3 0  9996,2 53413  53.2174  60.1234 0001195  95.9855 264.1273 15.08846072 42599,6917.862,95.437,540.554,538.9,0.0
53413.0,STARLINK-4500,PAYLOAD,2023-05-14 19:19:39,15.08825837,0.00014,53.2177,57.4484,100.4217,259.6933,0.00053458,8.227e-05,0.0,0 STARLINK-4500,1 53413U 22097AB  23134.80532016  .00008227  00000-0  53458-3 0  9991,2 53413  53.2177  57.4484 0001400 100.4217 259.6933 15.08825837 43174,6917.924,95.438,540.757,538.82,0.0
53413.0,STARLINK-4500,PAYLOAD,2023-05-15 01:41:12,15.08836355,0.00013,53.2183,56.2604,96.7422,263.3718,-4.4934e-05,-1.003e-05,0.0,0 STARLINK-4500,1 53413U 22097AB  23135.07027964 -.00001003  00000-0 -44934-4 0  9999,2 53413  53.2183  56.2604 0001300  96.7422 263.3718 15.08836355 42726,6917.892,95.438,540.656,538.857,0.0
53413.0,STARLINK-4500,PAYLOAD,2023-05-15 11:13:31,15.08838489,0.0001335,53.2186,54.4764,98.8811,261.2333,9.0694e-05,1.156e-05,0.0,0 STARLINK-4500,1 53413U 22097AB  23135.46772070  .00001156  00000-0  90694-4 0  9998,2 53413  53.2186  54.4764 0001335  98.8811 261.2333 15.08838489 43270,6917.885,95.438,540.674,538.826,0.0
53413.0,STARLINK-4500,PAYLOAD,2023-05-15 17:35:03,15.08840766,0.0001287,53.2182,53.2859,99.6147,260.4991,0.00025037,3.699e-05,0.0,0 STARLINK-4500,1 53413U 22097AB  23135.73268095  .00003699  00000-0  25037-3 0  9997,2 53413  53.2182  53.2859 0001287  99.6147 260.4991 15.08840766 43312,6917.878,95.438,540.633,538.853,0.0
53413.0,STARLINK-4500,PAYLOAD,2023-05-16 03:07:22,15.08848498,0.0001298,53.2184,51.5021,100.019,260.0949,0.00032011,4.811e-05,0.0,0 STARLINK-4500,1 53413U 22097AB  23136.13011746  .00004811  00000-0  32011-3 0  9998,2 53413  53.2184  51.5021 0001298 100.0190 260.0949 15.08848498 42883,6917.854,95.437,540.617,538.821,0.0
53413.0,STARLINK-4500,PAYLOAD,2023-05-16 22:11:59,15.08842069,0.0001235,53.2181,47.9339,101.0917,259.0214,5.41e-05,5.73e-06,0.0,0 STARLINK-4500,1 53413U 22097AB  23136.92499779  .00000573  00000-0  54100-4 0  9996,2 53413  53.2181  47.9339 0001235 101.0917 259.0214 15.08842069 43006,6917.874,95.437,540.593,538.885,0.0
53413.0,STARLINK-4500,PAYLOAD,2023-05-17 02:58:09,15.08844571,0.0001231,53.2183,47.042,100.1722,259.9409,0.00013074,1.794e-05,0.0,0 STARLINK-4500,1 53413U 22097AB  23137.12371692  .00001794  00000-0  13074-3 0  9992,2 53413  53.2183  47.0420 0001231 100.1722 259.9409 15.08844571 43522,6917.866,95.437,540.583,538.88,0.0
53413.0,STARLINK-4500,PAYLOAD,2023-05-18 02:48:56,15.08841205,0.0001182,53.2181,42.5776,85.6852,274.4275,-6.1473e-05,-1.266e-05,0.0,0 STARLINK-4500,1 53413U 22097AB  23138.11731787 -.00001266  00000-0 -61473-4 0  9990,2 53413  53.2181  42.5776 0001182  85.6852 274.4275 15.08841205 43186,6917.877,95.437,540.559,538.924,0.0
53413.0,STARLINK-4500,PAYLOAD,2023-05-19 02:39:43,15.08846499,0.0001055,53.2187,38.1172,92.2967,267.8146,8.4672e-05,1.06e-05,0.0,0 STARLINK-4500,1 53413U 22097AB  23139.11091509  .00001060  00000-0  84672-4 0  9998,2 53413  53.2187  38.1172 0001055  92.2967 267.8146 15.08846499 43333,6917.861,95.437,540.455,538.996,0.0
53413.0,STARLINK-4500,PAYLOAD,2023-05-19 21:44:21,15.08840085,0.0001053,53.2192,34.5493,83.8001,276.3111,6.9534e-05,8.19e-06,0.0,0 STARLINK-4500,1 53413U 22097AB  23139.90580014  .00000819  00000-0  69534-4 0  9990,2 53413  53.2192  34.5493 0001053  83.8001 276.3111 15.08840085 43947,6917.88,95.438,540.474,539.017,0.0
53413.0,STARLINK-4500,PAYLOAD,2023-05-19 23:19:44,15.08841901,0.0001036,53.2183,34.2521,95.1258,264.9852,7.1036e-05,8.43e-06,0.0,0 STARLINK-4500,1 53413U 22097AB  23139.97203829  .00000843  00000-0  71036-4 0  9990,2 53413  53.2183  34.2521 0001036  95.1258 264.9852 15.08841901 43467,6917.875,95.437,540.456,539.023,0.0
53413.0,STARLINK-4500,PAYLOAD,2023-05-20 16:48:57,15.08859856,0.000102,53.2192,30.9828,95.1793,264.9316,4.2038e-05,3.82e-06,0.0,0 STARLINK-4500,1 53413U 22097AB  23140.70066848  .00000382  00000-0  42038-4 0  9999,2 53413  53.2192  30.9828 0001020  95.1793 264.9316 15.08859856 43572,6917.82,95.436,540.39,538.979,0.0
53413.0,STARLINK-4500,PAYLOAD,2023-05-20 19:59:44,15.08857814,0.0001097,53.2174,30.3906,81.123,278.9886,0.00020879,3.038e-05,0.0,0 STARLINK-4500,1 53413U 22097AB  23140.83314887  .00003038  00000-0  20879-3 0  9991,2 53413  53.2174  30.3906 0001097  81.1230 278.9886 15.08857814 44084,6917.826,95.436,540.45,538.932,0.0
53413.0,STARLINK-4500,PAYLOAD,2023-05-21 02:21:16,15.08867649,0.0001177,53.2177,29.1979,97.7275,262.3851,0.00050259,7.726e-05,0.0,0 STARLINK-4500,1 53413U 22097AB  23141.09810345  .00007726  00000-0  50259-3 0  9993,2 53413  53.2177  29.1979 0001177  97.7275 262.3851 15.08867649 44125,6917.796,95.436,540.475,538.847,0.0
53413.0,STARLINK-4500,PAYLOAD,2023-05-21 16:39:45,15.08829958,0.000152,53.2176,26.5223,90.9619,269.1547,-0.00012913,-2.342e-05,0.0,0 STARLINK-4500,1 53413U 22097AB  23141.69428159 -.00002342  00000-0 -12913-3 0  9993,2 53413  53.2176  26.5223 0001520  90.9619 269.1547 15.08829958 43729,6917.911,95.438,540.828,538.725,0.0
